QIANFAN-41              
1 62242U 24232F   25216.92647353  .00000049  00000+0  56591-4 0  9996
2 62242  88.9929  54.3190 0013139 199.0439 161.0223 13.50959665 81729
QIANFAN-42              
1 62243U 24232G   25216.95045880  .00000143  00000+0  55393-4 0  9991
2 62243  88.9927  52.2020 0016294 141.9339 218.3009 14.24334339 82891
QIANFAN-43              
1 62244U 24232H   25216.92232248  .00000054  00000+0  65425-4 0  9993
2 62244  88.9933  54.3790 0014474 205.4129 154.6312 13.50952456 50334
QIANFAN-44              
1 62245U 24232J   25216.91004549  .00000053  00000+0  63389-4 0  9990
2 62245  88.9931  54.1929 0012807 201.3504 158.7114 13.50962443 81803
QIANFAN-45              
1 62246U 24232K   25216.87710324  .00000058  00000+0  70935-4 0  9991
2 62246  88.9935  54.3383 0013456 201.5082 158.5505 13.50958220 81729
QIANFAN-46              
1 62247U 24232L   25216.82772346  .00000045  00000+0  51116-4 0  9995
2 62247  88.9931  54.4177 0013350 207.5501 152.4944 13.50960279 81674
QIANFAN-47              
1 62248U 24232M   25216.83176490  .00000060  00000+0  74710-4 0  9997
2 62248  88.9927  54.3555 0013800 206.7964 153.2476 13.50959969 81700
QIANFAN-48              
1 62249U 24232N   25216.94295790  .00000066  00000+0  83511-4 0  9990
2 62249  88.9931  54.3408 0015983 210.2202 149.8029 13.50953837 81727
